{
  "type": "FeatureCollection",
  "features": [
    {
      "type": "Feature",
      "properties": {
        "norad_id": 51444,
        "name": "CSG-2",
        "group": "resource",
        "lat": 29.54362402528509,
        "lon": 159.4590222911279,
        "alt_km": 620.5217438889777,
        "timestamp": "2025-12-08T13:49:31.451170+00:00",
        "meta_object_name": "CSG-2",
        "meta_object_id": "2022-008A",
        "meta_epoch": "2025-12-08T05:35:23.624448",
        "meta_mean_motion": 14.82156872,
        "meta_eccentricity": 0.00014923,
        "meta_inclination": 97.8812,
        "meta_ra_of_asc_node": 163.6241,
        "meta_arg_of_pericenter": 87.8115,
        "meta_mean_anomaly": 272.3269,
        "meta_ephemeris_type": 0,
        "meta_classification_type": "U",
        "meta_norad_cat_id": 51444,
        "meta_element_set_no": 999,
        "meta_rev_at_epoch": 20830,
        "meta_bstar": 0.00012062508,
        "meta_mean_motion_dot": 9.08e-06,
        "meta_mean_motion_ddot": 0,
        "tle_line1": "1 51444U 22008A   25342.23291232  .00000908  00000+0  12063-3 0  9991",
        "tle_line2": "2 51444  97.8812 163.6241 0001492  87.8115 272.3269 14.82156872208302"
      },
      "geometry": {
        "type": "Point",
        "coordinates": [
          159.4590222911279,
          29.54362402528509
        ]
      }
    },
    {
      "type": "Feature",
      "properties": {
        "norad_id": 52912,
        "name": "GAOFEN-12 03",
        "group": "resource",
        "lat": -15.181190279866655,
        "lon": -127.83377422073994,
        "alt_km": 635.2025905120208,
        "timestamp": "2025-12-08T13:49:31.451180+00:00",
        "meta_object_name": "GAOFEN-12 03",
        "meta_object_id": "2022-069A",
        "meta_epoch": "2025-12-08T05:46:45.229728",
        "meta_mean_motion": 14.7959337,
        "meta_eccentricity": 0.0002256,
        "meta_inclination": 97.8492,
        "meta_ra_of_asc_node": 229.6936,
        "meta_arg_of_pericenter": 69.8169,
        "meta_mean_anomaly": 290.3285,
        "meta_ephemeris_type": 0,
        "meta_classification_type": "U",
        "meta_norad_cat_id": 52912,
        "meta_element_set_no": 999,
        "meta_rev_at_epoch": 18637,
        "meta_bstar": 0.00029839715,
        "meta_mean_motion_dot": 2.185e-05,
        "meta_mean_motion_ddot": 0,
        "tle_line1": "1 52912U 22069A   25342.24080127  .00002185  00000+0  29840-3 0  9999",
        "tle_line2": "2 52912  97.8492 229.6936 0002256  69.8169 290.3285 14.79593370186373"
      },
      "geometry": {
        "type": "Point",
        "coordinates": [
          -127.83377422073994,
          -15.181190279866655
        ]
      }
    },
    {
      "type": "Feature",
      "properties": {
        "norad_id": 54754,
        "name": "SWOT",
        "group": "resource",
        "lat": 64.46760218986672,
        "lon": -39.99052143981056,
        "alt_km": 886.5926955831865,
        "timestamp": "2025-12-08T13:49:31.451193+00:00",
        "meta_object_name": "SWOT",
        "meta_object_id": "2022-173A",
        "meta_epoch": "2025-12-08T06:38:40.640064",
        "meta_mean_motion": 14.00173729,
        "meta_eccentricity": 3.438e-05,
        "meta_inclination": 77.6102,
        "meta_ra_of_asc_node": 293.0144,
        "meta_arg_of_pericenter": 125.4008,
        "meta_mean_anomaly": 234.7176,
        "meta_ephemeris_type": 0,
        "meta_classification_type": "U",
        "meta_norad_cat_id": 54754,
        "meta_element_set_no": 999,
        "meta_rev_at_epoch": 15243,
        "meta_bstar": 9.7073018e-05,
        "meta_mean_motion_dot": 1.41e-06,
        "meta_mean_motion_ddot": 0,
        "tle_line1": "1 54754U 22173A   25342.27685926  .00000141  00000+0  97073-4 0  9996",
        "tle_line2": "2 54754  77.6102 293.0144 0000343 125.4008 234.7176 14.00173729152432"
      },
      "geometry": {
        "type": "Point",
        "coordinates": [
          -39.99052143981056,
          64.46760218986672
        ]
      }
    },
    {
      "type": "Feature",
      "properties": {
        "norad_id": 57654,
        "name": "GAOFEN-12 04",
        "group": "resource",
        "lat": 26.550547044071923,
        "lon": 82.38111723346991,
        "alt_km": 629.2216877033152,
        "timestamp": "2025-12-08T13:49:31.451203+00:00",
        "meta_object_name": "GAOFEN-12 04",
        "meta_object_id": "2023-123A",
        "meta_epoch": "2025-12-08T06:38:39.039936",
        "meta_mean_motion": 14.79680441,
        "meta_eccentricity": 0.00013878,
        "meta_inclination": 97.912,
        "meta_ra_of_asc_node": 258.1018,
        "meta_arg_of_pericenter": 73.3,
        "meta_mean_anomaly": 286.8363,
        "meta_ephemeris_type": 0,
        "meta_classification_type": "U",
        "meta_norad_cat_id": 57654,
        "meta_element_set_no": 999,
        "meta_rev_at_epoch": 12439,
        "meta_bstar": 0.00034440888,
        "meta_mean_motion_dot": 2.534e-05,
        "meta_mean_motion_ddot": 0,
        "tle_line1": "1 57654U 23123A   25342.27684074  .00002534  00000+0  34441-3 0  9994",
        "tle_line2": "2 57654  97.9120 258.1018 0001387  73.3000 286.8363 14.79680441124393"
      },
      "geometry": {
        "type": "Point",
        "coordinates": [
          82.38111723346991,
          26.550547044071923
        ]
      }
    },
    {
      "type": "Feature",
      "properties": {
        "norad_id": 59065,
        "name": "PARS 1",
        "group": "resource",
        "lat": -6.5313002933685285,
        "lon": -45.718943463347244,
        "alt_km": 447.6845533248743,
        "timestamp": "2025-12-08T13:49:31.451213+00:00",
        "meta_object_name": "PARS 1",
        "meta_object_id": "2024-039Q",
        "meta_epoch": "2025-12-08T06:03:39.009312",
        "meta_mean_motion": 15.40823542,
        "meta_eccentricity": 0.00126874,
        "meta_inclination": 97.4636,
        "meta_ra_of_asc_node": 313.0907,
        "meta_arg_of_pericenter": 85.4921,
        "meta_mean_anomaly": 274.7775,
        "meta_ephemeris_type": 0,
        "meta_classification_type": "U",
        "meta_norad_cat_id": 59065,
        "meta_element_set_no": 999,
        "meta_rev_at_epoch": 9919,
        "meta_bstar": 0.00034834547,
        "meta_mean_motion_dot": 0.00014241,
        "meta_mean_motion_ddot": 0,
        "tle_line1": "1 59065U 24039Q   25342.25253483  .00014241  00000+0  34835-3 0  9998",
        "tle_line2": "2 59065  97.4636 313.0907 0012687  85.4921 274.7775 15.40823542 99199"
      },
      "geometry": {
        "type": "Point",
        "coordinates": [
          -45.718943463347244,
          -6.5313002933685285
        ]
      }
    },
    {
      "type": "Feature",
      "properties": {
        "norad_id": 59371,
        "name": "RESURS-P 4",
        "group": "resource",
        "lat": -82.5116007984556,
        "lon": 33.27661237603134,
        "alt_km": 478.1372015134393,
        "timestamp": "2025-12-08T13:49:31.451223+00:00",
        "meta_object_name": "RESURS-P 4",
        "meta_object_id": "2024-061A",
        "meta_epoch": "2025-12-08T06:23:17.126016",
        "meta_mean_motion": 15.32031518,
        "meta_eccentricity": 0.00018412,
        "meta_inclination": 97.2543,
        "meta_ra_of_asc_node": 288.6878,
        "meta_arg_of_pericenter": 53.2413,
        "meta_mean_anomaly": 306.8998,
        "meta_ephemeris_type": 0,
        "meta_classification_type": "U",
        "meta_norad_cat_id": 59371,
        "meta_element_set_no": 999,
        "meta_rev_at_epoch": 9452,
        "meta_bstar": 0.0001884149,
        "meta_mean_motion_dot": 5.751e-05,
        "meta_mean_motion_ddot": 0,
        "tle_line1": "1 59371U 24061A   25342.26617044  .00005751  00000+0  18841-3 0  9996",
        "tle_line2": "2 59371  97.2543 288.6878 0001841  53.2413 306.8998 15.32031518 94528"
      },
      "geometry": {
        "type": "Point",
        "coordinates": [
          33.27661237603134,
          -82.5116007984556
        ]
      }
    },
    {
      "type": "Feature",
      "properties": {
        "norad_id": 59625,
        "name": "LEGION 1",
        "group": "resource",
        "lat": 6.6071238317265895,
        "lon": 56.373303923280645,
        "alt_km": 516.3223612467891,
        "timestamp": "2025-12-08T13:49:31.451234+00:00",
        "meta_object_name": "LEGION 1",
        "meta_object_id": "2024-081A",
        "meta_epoch": "2025-12-08T05:52:39.665856",
        "meta_mean_motion": 15.16411608,
        "meta_eccentricity": 0.0004316,
        "meta_inclination": 97.5214,
        "meta_ra_of_asc_node": 56.9219,
        "meta_arg_of_pericenter": 336.4628,
        "meta_mean_anomaly": 23.6407,
        "meta_ephemeris_type": 0,
        "meta_classification_type": "U",
        "meta_norad_cat_id": 59625,
        "meta_element_set_no": 999,
        "meta_rev_at_epoch": 8859,
        "meta_bstar": 0.00036023025,
        "meta_mean_motion_dot": 6.936e-05,
        "meta_mean_motion_ddot": 0,
        "tle_line1": "1 59625U 24081A   25342.24490354  .00006936  00000+0  36023-3 0  9999",
        "tle_line2": "2 59625  97.5214  56.9219 0004316 336.4628  23.6407 15.16411608 88590"
      },
      "geometry": {
        "type": "Point",
        "coordinates": [
          56.373303923280645,
          6.6071238317265895
        ]
      }
    }
  ]
}